TEVEL2-8                
1 63239U 25052AF  26068.66815442  .00019130  00000+0  69304-3 0  9993
2 63239  97.4055 324.2923 0008031 124.9191 235.2804 15.28392908 54807
STARLINK-35593          
1 66107U 25236X   26068.42169623  .00018336  00000+0  62980-3 0  9991
2 66107  53.1598 105.1111 0001259  73.6462 286.4677 15.30193624 22905
